[
  {
    "OBJECT_NAME": "STARLINK-11584 [DTC]",
    "OBJECT_ID": "2025-039C",
    "EPOCH": "2025-05-31T14:00:01.000224",
    "MEAN_MOTION": 15.73977161,
    "ECCENTRICITY": 0.000169,
    "INCLINATION": 43.0003,
    "RA_OF_ASC_NODE": 137.6887,
    "ARG_OF_PERICENTER": 282.0044,
    "MEAN_ANOMALY": 56.2397,
    "EPHEMERIS_TYPE": 0,
    "CLASSIFICATION_TYPE": "U",
    "NORAD_CAT_ID": 63106,
    "ELEMENT_SET_NO": 999,
    "REV_AT_EPOCH": 589,
    "BSTAR": -0.0066945,
    "MEAN_MOTION_DOT": -0.00884846,
    "MEAN_MOTION_DDOT": 0
  },
  {
    "OBJECT_NAME": "STARLINK-11627 [DTC]",
    "OBJECT_ID": "2025-039D",
    "EPOCH": "2025-05-31T06:19:02.546688",
    "MEAN_MOTION": 15.77884075,
    "ECCENTRICITY": 0.0001021,
    "INCLINATION": 43.0021,
    "RA_OF_ASC_NODE": 139.5328,
    "ARG_OF_PERICENTER": 280.7738,
    "MEAN_ANOMALY": 79.3017,
    "EPHEMERIS_TYPE": 0,
    "CLASSIFICATION_TYPE": "U",
    "NORAD_CAT_ID": 63107,
    "ELEMENT_SET_NO": 999,
    "REV_AT_EPOCH": 1519,
    "BSTAR": 2.3556e-05,
    "MEAN_MOTION_DOT": 3.608e-05,
    "MEAN_MOTION_DDOT": 0
  },
  {
    "OBJECT_NAME": "STARLINK-11632 [DTC]",
    "OBJECT_ID": "2025-039E",
    "EPOCH": "2025-05-31T21:24:52.550496",
    "MEAN_MOTION": 15.77039078,
    "ECCENTRICITY": 0.0003025,
    "INCLINATION": 43.004,
    "RA_OF_ASC_NODE": 135.6434,
    "ARG_OF_PERICENTER": 232.9718,
    "MEAN_ANOMALY": 127.0876,
    "EPHEMERIS_TYPE": 0,
    "CLASSIFICATION_TYPE": "U",
    "NORAD_CAT_ID": 63108,
    "ELEMENT_SET_NO": 999,
    "REV_AT_EPOCH": 1600,
    "BSTAR": -0.00055015,
    "MEAN_MOTION_DOT": -0.00091832,
    "MEAN_MOTION_DDOT": 0
  },
  {
    "OBJECT_NAME": "STARLINK-11625 [DTC]",
    "OBJECT_ID": "2025-039F",
    "EPOCH": "2025-05-31T14:00:01.000224",
    "MEAN_MOTION": 15.72262782,
    "ECCENTRICITY": 0.0001789,
    "INCLINATION": 43.0004,
    "RA_OF_ASC_NODE": 137.5178,
    "ARG_OF_PERICENTER": 282.4944,
    "MEAN_ANOMALY": 123.3724,
    "EPHEMERIS_TYPE": 0,
    "CLASSIFICATION_TYPE": "U",
    "NORAD_CAT_ID": 63109,
    "ELEMENT_SET_NO": 999,
    "REV_AT_EPOCH": 508,
    "BSTAR": -0.0072333,
    "MEAN_MOTION_DOT": -0.00887415,
    "MEAN_MOTION_DDOT": 0
  },
  {
    "OBJECT_NAME": "STARLINK-11601 [DTC]",
    "OBJECT_ID": "2025-039G",
    "EPOCH": "2025-05-31T07:29:23.125344",
    "MEAN_MOTION": 15.77671056,
    "ECCENTRICITY": 0.0001955,
    "INCLINATION": 43.0018,
    "RA_OF_ASC_NODE": 139.0274,
    "ARG_OF_PERICENTER": 268.6105,
    "MEAN_ANOMALY": 91.4541,
    "EPHEMERIS_TYPE": 0,
    "CLASSIFICATION_TYPE": "U",
    "NORAD_CAT_ID": 63110,
    "ELEMENT_SET_NO": 999,
    "REV_AT_EPOCH": 1520,
    "BSTAR": -0.00013921,
    "MEAN_MOTION_DOT": -0.00024455,
    "MEAN_MOTION_DDOT": 0
  },
  {
    "OBJECT_NAME": "STARLINK-11630 [DTC]",
    "OBJECT_ID": "2025-039H",
    "EPOCH": "2025-05-31T22:00:01.999584",
    "MEAN_MOTION": 15.70809736,
    "ECCENTRICITY": 0.0001672,
    "INCLINATION": 43.0003,
    "RA_OF_ASC_NODE": 135.5775,
    "ARG_OF_PERICENTER": 254.7736,
    "MEAN_ANOMALY": 210.3211,
    "EPHEMERIS_TYPE": 0,
    "CLASSIFICATION_TYPE": "U",
    "NORAD_CAT_ID": 63111,
    "ELEMENT_SET_NO": 999,
    "REV_AT_EPOCH": 1601,
    "BSTAR": 0.00027715,
    "MEAN_MOTION_DOT": 0.00035219,
    "MEAN_MOTION_DDOT": 0
  },
  {
    "OBJECT_NAME": "STARLINK-11590 [DTC]",
    "OBJECT_ID": "2025-039J",
    "EPOCH": "2025-05-31T00:26:46.538016",
    "MEAN_MOTION": 15.70827814,
    "ECCENTRICITY": 0.0001656,
    "INCLINATION": 43.0028,
    "RA_OF_ASC_NODE": 141.1407,
    "ARG_OF_PERICENTER": 278.1365,
    "MEAN_ANOMALY": 81.9315,
    "EPHEMERIS_TYPE": 0,
    "CLASSIFICATION_TYPE": "U",
    "NORAD_CAT_ID": 63112,
    "ELEMENT_SET_NO": 999,
    "REV_AT_EPOCH": 1515,
    "BSTAR": 3.9995e-06,
    "MEAN_MOTION_DOT": 6.4e-07,
    "MEAN_MOTION_DDOT": 0
  },
  {
    "OBJECT_NAME": "STARLINK-11598 [DTC]",
    "OBJECT_ID": "2025-039K",
    "EPOCH": "2025-05-31T14:00:01.000224",
    "MEAN_MOTION": 15.70846808,
    "ECCENTRICITY": 0.0001535,
    "INCLINATION": 43.0002,
    "RA_OF_ASC_NODE": 137.3618,
    "ARG_OF_PERICENTER": 269.812,
    "MEAN_ANOMALY": 198.0928,
    "EPHEMERIS_TYPE": 0,
    "CLASSIFICATION_TYPE": "U",
    "NORAD_CAT_ID": 63113,
    "ELEMENT_SET_NO": 999,
    "REV_AT_EPOCH": 588,
    "BSTAR": -0.00029931,
    "MEAN_MOTION_DOT": -0.00038687,
    "MEAN_MOTION_DDOT": 0
  },
  {
    "OBJECT_NAME": "STARLINK-11600 [DTC]",
    "OBJECT_ID": "2025-039L",
    "EPOCH": "2025-05-31T14:00:01.000224",
    "MEAN_MOTION": 15.73129002,
    "ECCENTRICITY": 0.0001659,
    "INCLINATION": 43.0005,
    "RA_OF_ASC_NODE": 137.1495,
    "ARG_OF_PERICENTER": 283.7103,
    "MEAN_ANOMALY": 269.4299,
    "EPHEMERIS_TYPE": 0,
    "CLASSIFICATION_TYPE": "U",
    "NORAD_CAT_ID": 63114,
    "ELEMENT_SET_NO": 999,
    "REV_AT_EPOCH": 588,
    "BSTAR": -0.0070794,
    "MEAN_MOTION_DOT": -0.00900136,
    "MEAN_MOTION_DDOT": 0
  },
  {
    "OBJECT_NAME": "STARLINK-11597 [DTC]",
    "OBJECT_ID": "2025-039M",
    "EPOCH": "2025-05-31T14:00:01.000224",
    "MEAN_MOTION": 15.7553462,
    "ECCENTRICITY": 0.0001357,
    "INCLINATION": 43.0004,
    "RA_OF_ASC_NODE": 137.039,
    "ARG_OF_PERICENTER": 281.2992,
    "MEAN_ANOMALY": 315.9403,
    "EPHEMERIS_TYPE": 0,
    "CLASSIFICATION_TYPE": "U",
    "NORAD_CAT_ID": 63115,
    "ELEMENT_SET_NO": 999,
    "REV_AT_EPOCH": 584,
    "BSTAR": -0.0063836,
    "MEAN_MOTION_DOT": -0.00901583,
    "MEAN_MOTION_DDOT": 0
  },
  {
    "OBJECT_NAME": "STARLINK-11591 [DTC]",
    "OBJECT_ID": "2025-039N",
    "EPOCH": "2025-05-31T22:00:01.999584",
    "MEAN_MOTION": 15.7503606,
    "ECCENTRICITY": 0.0001652,
    "INCLINATION": 43.0002,
    "RA_OF_ASC_NODE": 134.9444,
    "ARG_OF_PERICENTER": 271.4437,
    "MEAN_ANOMALY": 87.1257,
    "EPHEMERIS_TYPE": 0,
    "CLASSIFICATION_TYPE": "U",
    "NORAD_CAT_ID": 63116,
    "ELEMENT_SET_NO": 999,
    "REV_AT_EPOCH": 1597,
    "BSTAR": -0.006063,
    "MEAN_MOTION_DOT": -0.00843679,
    "MEAN_MOTION_DDOT": 0
  },
  {
    "OBJECT_NAME": "STARLINK-32955",
    "OBJECT_ID": "2025-039P",
    "EPOCH": "2025-05-31T07:27:00.260352",
    "MEAN_MOTION": 15.27580254,
    "ECCENTRICITY": 0.0001718,
    "INCLINATION": 43.0027,
    "RA_OF_ASC_NODE": 167.2408,
    "ARG_OF_PERICENTER": 267.6266,
    "MEAN_ANOMALY": 92.4389,
    "EPHEMERIS_TYPE": 0,
    "CLASSIFICATION_TYPE": "U",
    "NORAD_CAT_ID": 63117,
    "ELEMENT_SET_NO": 999,
    "REV_AT_EPOCH": 1488,
    "BSTAR": -0.00015185,
    "MEAN_MOTION_DOT": -4.438e-05,
    "MEAN_MOTION_DDOT": 0
  },
  {
    "OBJECT_NAME": "STARLINK-32945",
    "OBJECT_ID": "2025-039Q",
    "EPOCH": "2025-05-31T09:12:14.374080",
    "MEAN_MOTION": 15.27572787,
    "ECCENTRICITY": 0.0001314,
    "INCLINATION": 43.0011,
    "RA_OF_ASC_NODE": 166.9245,
    "ARG_OF_PERICENTER": 274.4941,
    "MEAN_ANOMALY": 85.576,
    "EPHEMERIS_TYPE": 0,
    "CLASSIFICATION_TYPE": "U",
    "NORAD_CAT_ID": 63118,
    "ELEMENT_SET_NO": 999,
    "REV_AT_EPOCH": 1489,
    "BSTAR": 1.1458e-05,
    "MEAN_MOTION_DOT": 5.3e-07,
    "MEAN_MOTION_DDOT": 0
  },
  {
    "OBJECT_NAME": "STARLINK-32941",
    "OBJECT_ID": "2025-039R",
    "EPOCH": "2025-05-31T02:15:54.330048",
    "MEAN_MOTION": 15.40693411,
    "ECCENTRICITY": 0.0001297,
    "INCLINATION": 43.0015,
    "RA_OF_ASC_NODE": 163.8653,
    "ARG_OF_PERICENTER": 268.5871,
    "MEAN_ANOMALY": 91.4837,
    "EPHEMERIS_TYPE": 0,
    "CLASSIFICATION_TYPE": "U",
    "NORAD_CAT_ID": 63119,
    "ELEMENT_SET_NO": 999,
    "REV_AT_EPOCH": 1490,
    "BSTAR": 1.6575e-05,
    "MEAN_MOTION_DOT": 3.89e-06,
    "MEAN_MOTION_DDOT": 0
  }
]