STARLINK-11584 [DTC]    
1 63106U 25039C   25151.58334491 -.00884846  00000+0 -66945-2 0  9997
2 63106  43.0003 137.6887 0001690 282.0044  56.2397 15.73977161  5895
STARLINK-11627 [DTC]    
1 63107U 25039D   25151.26322392  .00003608  00000+0  23556-4 0  9990
2 63107  43.0021 139.5328 0001021 280.7738  79.3017 15.77884075 15194
STARLINK-11632 [DTC]    
1 63108U 25039E   25151.89227489 -.00091832  00000+0 -55015-3 0  9993
2 63108  43.0040 135.6434 0003025 232.9718 127.0876 15.77039078 16004
STARLINK-11625 [DTC]    
1 63109U 25039F   25151.58334491 -.00887415  00000+0 -72333-2 0  9993
2 63109  43.0004 137.5178 0001789 282.4944 123.3724 15.72262782  5089
STARLINK-11601 [DTC]    
1 63110U 25039G   25151.31207321 -.00024455  00000+0 -13921-3 0  9993
2 63110  43.0018 139.0274 0001955 268.6105  91.4541 15.77671056 15200
STARLINK-11630 [DTC]    
1 63111U 25039H   25151.91668981  .00035219  00000+0  27715-3 0  9997
2 63111  43.0003 135.5775 0001672 254.7736 210.3211 15.70809736 16011
STARLINK-11590 [DTC]    
1 63112U 25039J   25151.01859419  .00000064  00000+0  39995-5 0  9992
2 63112  43.0028 141.1407 0001656 278.1365  81.9315 15.70827814 15152
STARLINK-11598 [DTC]    
1 63113U 25039K   25151.58334491 -.00038687  00000+0 -29931-3 0  9994
2 63113  43.0002 137.3618 0001535 269.8120 198.0928 15.70846808  5881
STARLINK-11600 [DTC]    
1 63114U 25039L   25151.58334491 -.00900136  00000+0 -70794-2 0  9994
2 63114  43.0005 137.1495 0001659 283.7103 269.4299 15.73129002  5886
STARLINK-11597 [DTC]    
1 63115U 25039M   25151.58334491 -.00901583  00000+0 -63836-2 0  9991
2 63115  43.0004 137.0390 0001357 281.2992 315.9403 15.75534620  5841
STARLINK-11591 [DTC]    
1 63116U 25039N   25151.91668981 -.00843679  00000+0 -60630-2 0  9993
2 63116  43.0002 134.9444 0001652 271.4437  87.1257 15.75036060 15974
STARLINK-32955          
1 63117U 25039P   25151.31041968 -.00004438  00000+0 -15185-3 0  9996
2 63117  43.0027 167.2408 0001718 267.6266  92.4389 15.27580254 14881
STARLINK-32945          
1 63118U 25039Q   25151.38349970  .00000053  00000+0  11458-4 0  9995
2 63118  43.0011 166.9245 0001314 274.4941  85.5760 15.27572787 14897
STARLINK-32941          
1 63119U 25039R   25151.09437882  .00000389  00000+0  16575-4 0  9991
2 63119  43.0015 163.8653 0001297 268.5871  91.4837 15.40693411 14903
